SL-8 R/B                
1 20775U 90078B   26061.58658146  .00016433  00000+0  48266-3 0  9998
2 20775  82.8991 257.6993 0363985  37.8564 324.7656 14.88781381808242
SL-8 R/B                
1 21088U 91006B   26061.80681642  .00000049  00000+0  34070-4 0  9995
2 21088  82.9463 175.1623 0023437  56.9103  55.3984 13.77493276763123
OKEAN-3                 
1 21397U 91039A   26061.76334032  .00003815  00000+0  26828-3 0  9992
2 21397  82.5201 343.5519 0014363   3.0672 357.0640 15.04744684863990
COSMOS 2151             
1 21422U 91042A   26061.81278819  .00002206  00000+0  17467-3 0  9993
2 21422  82.4931  90.3116 0014145  84.1054 276.1782 15.00072578862168
SL-14 R/B               
1 21423U 91042B   26061.80256556  .00000601  00000+0  73116-4 0  9998
2 21423  82.4910 226.6410 0015580 263.2484  96.6957 14.81821006852050
ERS-1                   
1 21574U 91050A   26061.67670438  .00000386  00000+0  13827-3 0  9990
2 21574  98.7886  79.7350 0031255 221.5678 138.3133 14.39442840814728
ARIANE 40 R/B           
1 21610U 91050F   26061.74433943  .00000361  00000+0  12044-3 0  9990
2 21610  98.2027 114.2410 0004374  96.3153 263.8536 14.42887563817993
INTERCOSMOS 25          
1 21819U 91086A   26061.80558946  .00001593  00000+0  30564-3 0  9993
2 21819  82.6065 314.1685 1487069 131.7631 242.0557 12.11977255495851
SL-8 R/B                
1 21876U 92008B   26061.66886697  .00000007  00000+0 -90983-5 0  9995
2 21876  82.9228 273.0023 0035199 152.4647 271.6819 13.75969834708453
SL-8 R/B                
1 21938U 92020B   26061.79411639  .00000082  00000+0  69022-4 0  9993
2 21938  82.9340 158.8798 0027928 318.8708 162.2505 13.75548515700181
USA 81                  
1 21949U 92023A   26061.74288510  .00000209  00000+0  70113-4 0  9997
2 21949  85.0098 135.4483 0002637  83.1586 276.9907 14.32365171 93795
COSMOS 2219             
1 22219U 92076A   26061.37645188  .00000333  00000+0  19930-3 0  9990
2 22219  71.0614  33.3548 0019372 216.8071 143.1723 14.14088325717349
SL-16 R/B               
1 22220U 92076B   26061.78606193  .00000100  00000+0  73517-4 0  9994
2 22220  70.9997 202.9145 0010655 109.0576 354.1876 14.16859688720851
COSMOS 2221             
1 22236U 92080A   26061.68200046  .00002064  00000+0  18071-3 0  9996
2 22236  82.5020 285.7945 0013424 211.7493 148.2921 14.96169084779744
SL-16 R/B               
1 22285U 92093B   26061.31913869 -.00000104  00000+0 -28639-4 0  9995
2 22285  71.0236  19.7372 0006240 301.6294  58.4220 14.15449670712110
COSMOS 2228             
1 22286U 92094A   26061.76982566  .00002927  00000+0  25056-3 0  9998
2 22286  82.5145 243.9373 0017235 329.3619  30.6595 14.97147924775026
SL-16 R/B               
1 22566U 93016B   26061.78289701  .00000337  00000+0  19761-3 0  9996
2 22566  71.0056 229.6875 0011300 323.8063  36.2294 14.15304608701197
