[{"OBJECT_NAME":"SL-8 R/B","OBJECT_ID":"1990-078B","EPOCH":"2026-03-02T14:04:40.638144","MEAN_MOTION":14.88781381,"ECCENTRICITY":0.0363985,"INCLINATION":82.8991,"RA_OF_ASC_NODE":257.6993,"ARG_OF_PERICENTER":37.8564,"MEAN_ANOMALY":324.7656,"EPHEMERIS_TYPE":0,"CLASSIFICATION_TYPE":"U","NORAD_CAT_ID":20775,"ELEMENT_SET_NO":999,"REV_AT_EPOCH":80824,"BSTAR":0.00048266,"MEAN_MOTION_DOT":0.00016433,"MEAN_MOTION_DDOT":0},{"OBJECT_NAME":"SL-8 R/B","OBJECT_ID":"1991-006B","EPOCH":"2026-03-02T19:21:48.938688","MEAN_MOTION":13.77493276,"ECCENTRICITY":0.0023437,"INCLINATION":82.9463,"RA_OF_ASC_NODE":175.1623,"ARG_OF_PERICENTER":56.9103,"MEAN_ANOMALY":55.3984,"EPHEMERIS_TYPE":0,"CLASSIFICATION_TYPE":"U","NORAD_CAT_ID":21088,"ELEMENT_SET_NO":999,"REV_AT_EPOCH":76312,"BSTAR":3.407e-5,"MEAN_MOTION_DOT":4.9e-7,"MEAN_MOTION_DDOT":0},{"OBJECT_NAME":"OKEAN-3","OBJECT_ID":"1991-039A","EPOCH":"2026-03-02T18:19:12.603648","MEAN_MOTION":15.04744684,"ECCENTRICITY":0.0014363,"INCLINATION":82.5201,"RA_OF_ASC_NODE":343.5519,"ARG_OF_PERICENTER":3.0672,"MEAN_ANOMALY":357.064,"EPHEMERIS_TYPE":0,"CLASSIFICATION_TYPE":"U","NORAD_CAT_ID":21397,"ELEMENT_SET_NO":999,"REV_AT_EPOCH":86399,"BSTAR":0.00026828,"MEAN_MOTION_DOT":3.815e-5,"MEAN_MOTION_DDOT":0},{"OBJECT_NAME":"COSMOS 2151","OBJECT_ID":"1991-042A","EPOCH":"2026-03-02T19:30:24.899616","MEAN_MOTION":15.00072578,"ECCENTRICITY":0.0014145,"INCLINATION":82.4931,"RA_OF_ASC_NODE":90.3116,"ARG_OF_PERICENTER":84.1054,"MEAN_ANOMALY":276.1782,"EPHEMERIS_TYPE":0,"CLASSIFICATION_TYPE":"U","NORAD_CAT_ID":21422,"ELEMENT_SET_NO":999,"REV_AT_EPOCH":86216,"BSTAR":0.00017467,"MEAN_MOTION_DOT":2.206e-5,"MEAN_MOTION_DDOT":0},{"OBJECT_NAME":"SL-14 R/B","OBJECT_ID":"1991-042B","EPOCH":"2026-03-02T19:15:41.664384","MEAN_MOTION":14.81821006,"ECCENTRICITY":0.001558,"INCLINATION":82.491,"RA_OF_ASC_NODE":226.641,"ARG_OF_PERICENTER":263.2484,"MEAN_ANOMALY":96.6957,"EPHEMERIS_TYPE":0,"CLASSIFICATION_TYPE":"U","NORAD_CAT_ID":21423,"ELEMENT_SET_NO":999,"REV_AT_EPOCH":85205,"BSTAR":7.3116e-5,"MEAN_MOTION_DOT":6.01e-6,"MEAN_MOTION_DDOT":0},{"OBJECT_NAME":"ERS-1","OBJECT_ID":"1991-050A","EPOCH":"2026-03-02T16:14:27.258432","MEAN_MOTION":14.3944284,"ECCENTRICITY":0.0031255,"INCLINATION":98.7886,"RA_OF_ASC_NODE":79.735,"ARG_OF_PERICENTER":221.5678,"MEAN_ANOMALY":138.3133,"EPHEMERIS_TYPE":0,"CLASSIFICATION_TYPE":"U","NORAD_CAT_ID":21574,"ELEMENT_SET_NO":999,"REV_AT_EPOCH":81472,"BSTAR":0.00013827,"MEAN_MOTION_DOT":3.86e-6,"MEAN_MOTION_DDOT":0},{"OBJECT_NAME":"ARIANE 40 R/B","OBJECT_ID":"1991-050F","EPOCH":"2026-03-02T17:51:50.926752","MEAN_MOTION":14.42887563,"ECCENTRICITY":0.0004374,"INCLINATION":98.2027,"RA_OF_ASC_NODE":114.241,"ARG_OF_PERICENTER":96.3153,"MEAN_ANOMALY":263.8536,"EPHEMERIS_TYPE":0,"CLASSIFICATION_TYPE":"U","NORAD_CAT_ID":21610,"ELEMENT_SET_NO":999,"REV_AT_EPOCH":81799,"BSTAR":0.00012044,"MEAN_MOTION_DOT":3.61e-6,"MEAN_MOTION_DDOT":0},{"OBJECT_NAME":"INTERCOSMOS 25","OBJECT_ID":"1991-086A","EPOCH":"2026-03-02T19:20:02.929344","MEAN_MOTION":12.11977255,"ECCENTRICITY":0.1487069,"INCLINATION":82.6065,"RA_OF_ASC_NODE":314.1685,"ARG_OF_PERICENTER":131.7631,"MEAN_ANOMALY":242.0557,"EPHEMERIS_TYPE":0,"CLASSIFICATION_TYPE":"U","NORAD_CAT_ID":21819,"ELEMENT_SET_NO":999,"REV_AT_EPOCH":49585,"BSTAR":0.00030564,"MEAN_MOTION_DOT":1.593e-5,"MEAN_MOTION_DDOT":0},{"OBJECT_NAME":"SL-8 R/B","OBJECT_ID":"1992-008B","EPOCH":"2026-03-02T16:03:10.106208","MEAN_MOTION":13.75969834,"ECCENTRICITY":0.0035199,"INCLINATION":82.9228,"RA_OF_ASC_NODE":273.0023,"ARG_OF_PERICENTER":152.4647,"MEAN_ANOMALY":271.6819,"EPHEMERIS_TYPE":0,"CLASSIFICATION_TYPE":"U","NORAD_CAT_ID":21876,"ELEMENT_SET_NO":999,"REV_AT_EPOCH":70845,"BSTAR":-9.0983e-6,"MEAN_MOTION_DOT":7.0e-8,"MEAN_MOTION_DDOT":0},{"OBJECT_NAME":"SL-8 R/B","OBJECT_ID":"1992-020B","EPOCH":"2026-03-02T19:03:31.656096","MEAN_MOTION":13.75548515,"ECCENTRICITY":0.0027928,"INCLINATION":82.934,"RA_OF_ASC_NODE":158.8798,"ARG_OF_PERICENTER":318.8708,"MEAN_ANOMALY":162.2505,"EPHEMERIS_TYPE":0,"CLASSIFICATION_TYPE":"U","NORAD_CAT_ID":21938,"ELEMENT_SET_NO":999,"REV_AT_EPOCH":70018,"BSTAR":6.9022e-5,"MEAN_MOTION_DOT":8.2e-7,"MEAN_MOTION_DDOT":0},{"OBJECT_NAME":"USA 81","OBJECT_ID":"1992-023A","EPOCH":"2026-03-02T17:49:45.272640","MEAN_MOTION":14.32365171,"ECCENTRICITY":0.0002637,"INCLINATION":85.0098,"RA_OF_ASC_NODE":135.4483,"ARG_OF_PERICENTER":83.1586,"MEAN_ANOMALY":276.9907,"EPHEMERIS_TYPE":0,"CLASSIFICATION_TYPE":"U","NORAD_CAT_ID":21949,"ELEMENT_SET_NO":999,"REV_AT_EPOCH":9379,"BSTAR":7.0113e-5,"MEAN_MOTION_DOT":2.09e-6,"MEAN_MOTION_DDOT":0},{"OBJECT_NAME":"COSMOS 2219","OBJECT_ID":"1992-076A","EPOCH":"2026-03-02T09:02:05.442432","MEAN_MOTION":14.14088325,"ECCENTRICITY":0.00193723,"INCLINATION":71.0614,"RA_OF_ASC_NODE":33.3548,"ARG_OF_PERICENTER":216.8071,"MEAN_ANOMALY":143.1723,"EPHEMERIS_TYPE":0,"CLASSIFICATION_TYPE":"U","NORAD_CAT_ID":22219,"ELEMENT_SET_NO":999,"REV_AT_EPOCH":71734,"BSTAR":0.00019930155,"MEAN_MOTION_DOT":3.33e-6,"MEAN_MOTION_DDOT":0},{"OBJECT_NAME":"SL-16 R/B","OBJECT_ID":"1992-076B","EPOCH":"2026-03-02T18:51:55.750752","MEAN_MOTION":14.16859688,"ECCENTRICITY":0.0010655,"INCLINATION":70.9997,"RA_OF_ASC_NODE":202.9145,"ARG_OF_PERICENTER":109.0576,"MEAN_ANOMALY":354.1876,"EPHEMERIS_TYPE":0,"CLASSIFICATION_TYPE":"U","NORAD_CAT_ID":22220,"ELEMENT_SET_NO":999,"REV_AT_EPOCH":72085,"BSTAR":7.3517e-5,"MEAN_MOTION_DOT":1.0e-6,"MEAN_MOTION_DDOT":0},{"OBJECT_NAME":"COSMOS 2221","OBJECT_ID":"1992-080A","EPOCH":"2026-03-02T16:22:04.839744","MEAN_MOTION":14.96169084,"ECCENTRICITY":0.0013424,"INCLINATION":82.502,"RA_OF_ASC_NODE":285.7945,"ARG_OF_PERICENTER":211.7493,"MEAN_ANOMALY":148.2921,"EPHEMERIS_TYPE":0,"CLASSIFICATION_TYPE":"U","NORAD_CAT_ID":22236,"ELEMENT_SET_NO":999,"REV_AT_EPOCH":77974,"BSTAR":0.00018071,"MEAN_MOTION_DOT":2.064e-5,"MEAN_MOTION_DDOT":0},{"OBJECT_NAME":"SL-16 R/B","OBJECT_ID":"1992-093B","EPOCH":"2026-03-02T07:39:33.582816","MEAN_MOTION":14.1544967,"ECCENTRICITY":0.00062408,"INCLINATION":71.0236,"RA_OF_ASC_NODE":19.7372,"ARG_OF_PERICENTER":301.6294,"MEAN_ANOMALY":58.422,"EPHEMERIS_TYPE":0,"CLASSIFICATION_TYPE":"U","NORAD_CAT_ID":22285,"ELEMENT_SET_NO":999,"REV_AT_EPOCH":71211,"BSTAR":-2.8638843e-5,"MEAN_MOTION_DOT":-1.04e-6,"MEAN_MOTION_DDOT":0},{"OBJECT_NAME":"COSMOS 2228","OBJECT_ID":"1992-094A","EPOCH":"2026-03-02T18:28:32.937024","MEAN_MOTION":14.97147924,"ECCENTRICITY":0.0017235,"INCLINATION":82.5145,"RA_OF_ASC_NODE":243.9373,"ARG_OF_PERICENTER":329.3619,"MEAN_ANOMALY":30.6595,"EPHEMERIS_TYPE":0,"CLASSIFICATION_TYPE":"U","NORAD_CAT_ID":22286,"ELEMENT_SET_NO":999,"REV_AT_EPOCH":77502,"BSTAR":0.00025056,"MEAN_MOTION_DOT":2.927e-5,"MEAN_MOTION_DDOT":0},{"OBJECT_NAME":"SL-16 R/B","OBJECT_ID":"1993-016B","EPOCH":"2026-03-02T18:47:22.301664","MEAN_MOTION":14.15304608,"ECCENTRICITY":0.00113,"INCLINATION":71.0056,"RA_OF_ASC_NODE":229.6875,"ARG_OF_PERICENTER":323.8063,"MEAN_ANOMALY":36.2294,"EPHEMERIS_TYPE":0,"CLASSIFICATION_TYPE":"U","NORAD_CAT_ID":22566,"ELEMENT_SET_NO":999,"REV_AT_EPOCH":70119,"BSTAR":0.00019761,"MEAN_MOTION_DOT":3.37e-6,"MEAN_MOTION_DDOT":0}]
